{
  "type": "FeatureCollection",
  "features": [
    {
      "type": "Feature",
      "properties": {
        "norad_id": 66632,
        "name": "STARLINK-35973",
        "group": "last-30-days",
        "lat": 22.101586979862414,
        "lon": -140.44109892010894,
        "alt_km": 376.1027902617998,
        "timestamp": "2025-12-09T16:56:35.360100+00:00",
        "meta_object_name": "STARLINK-35973",
        "meta_object_id": "2025-271R",
        "meta_epoch": "2025-12-09T12:00:02.000160",
        "meta_mean_motion": 15.640582,
        "meta_eccentricity": 8.72e-05,
        "meta_inclination": 53.1592,
        "meta_ra_of_asc_node": 202.8392,
        "meta_arg_of_pericenter": 106.0412,
        "meta_mean_anomaly": 202.1988,
        "meta_ephemeris_type": 0,
        "meta_classification_type": "U",
        "meta_norad_cat_id": 66632,
        "meta_element_set_no": 999,
        "meta_rev_at_epoch": 366,
        "meta_bstar": -0.023302,
        "meta_mean_motion_dot": -0.01978091,
        "meta_mean_motion_ddot": 0,
        "tle_line1": "1 66632U 25271R   25343.50002315 -.01978091  00000+0 -23302-1 0  9990",
        "tle_line2": "2 66632  53.1592 202.8392 0000872 106.0412 202.1988 15.64058200  3663"
      },
      "geometry": {
        "type": "Point",
        "coordinates": [
          -140.44109892010894,
          22.101586979862414
        ]
      }
    },
    {
      "type": "Feature",
      "properties": {
        "norad_id": 66633,
        "name": "STARLINK-35948",
        "group": "last-30-days",
        "lat": 23.555856206517703,
        "lon": -139.09277518444213,
        "alt_km": 375.9193168896945,
        "timestamp": "2025-12-09T16:56:35.360110+00:00",
        "meta_object_name": "STARLINK-35948",
        "meta_object_id": "2025-271S",
        "meta_epoch": "2025-12-09T12:00:02.000160",
        "meta_mean_motion": 15.6404378,
        "meta_eccentricity": 8.67e-05,
        "meta_inclination": 53.1587,
        "meta_ra_of_asc_node": 202.8343,
        "meta_arg_of_pericenter": 112.0604,
        "meta_mean_anomaly": 198.1002,
        "meta_ephemeris_type": 0,
        "meta_classification_type": "U",
        "meta_norad_cat_id": 66633,
        "meta_element_set_no": 999,
        "meta_rev_at_epoch": 372,
        "meta_bstar": -0.02304,
        "meta_mean_motion_dot": -0.01957526,
        "meta_mean_motion_ddot": 0,
        "tle_line1": "1 66633U 25271S   25343.50002315 -.01957526  00000+0 -23040-1 0  9990",
        "tle_line2": "2 66633  53.1587 202.8343 0000867 112.0604 198.1002 15.64043780  3723"
      },
      "geometry": {
        "type": "Point",
        "coordinates": [
          -139.09277518444213,
          23.555856206517703
        ]
      }
    },
    {
      "type": "Feature",
      "properties": {
        "norad_id": 66634,
        "name": "STARLINK-35967",
        "group": "last-30-days",
        "lat": 25.001904129375593,
        "lon": -137.71037201345024,
        "alt_km": 375.6077490579064,
        "timestamp": "2025-12-09T16:56:35.360120+00:00",
        "meta_object_name": "STARLINK-35967",
        "meta_object_id": "2025-271T",
        "meta_epoch": "2025-12-09T12:00:02.000160",
        "meta_mean_motion": 15.64054683,
        "meta_eccentricity": 8.56e-05,
        "meta_inclination": 53.1588,
        "meta_ra_of_asc_node": 202.8301,
        "meta_arg_of_pericenter": 106.6874,
        "meta_mean_anomaly": 205.3865,
        "meta_ephemeris_type": 0,
        "meta_classification_type": "U",
        "meta_norad_cat_id": 66634,
        "meta_element_set_no": 999,
        "meta_rev_at_epoch": 365,
        "meta_bstar": -0.023222,
        "meta_mean_motion_dot": -0.01971924,
        "meta_mean_motion_ddot": 0,
        "tle_line1": "1 66634U 25271T   25343.50002315 -.01971924  00000+0 -23222-1 0  9991",
        "tle_line2": "2 66634  53.1588 202.8301 0000856 106.6874 205.3865 15.64054683  3659"
      },
      "geometry": {
        "type": "Point",
        "coordinates": [
          -137.71037201345024,
          25.001904129375593
        ]
      }
    },
    {
      "type": "Feature",
      "properties": {
        "norad_id": 66635,
        "name": "STARLINK-35955",
        "group": "last-30-days",
        "lat": 26.4326698941014,
        "lon": -136.29711087007632,
        "alt_km": 375.39553362301194,
        "timestamp": "2025-12-09T16:56:35.360134+00:00",
        "meta_object_name": "STARLINK-35955",
        "meta_object_id": "2025-271U",
        "meta_epoch": "2025-12-09T12:00:02.000160",
        "meta_mean_motion": 15.64058148,
        "meta_eccentricity": 8.57e-05,
        "meta_inclination": 53.159,
        "meta_ra_of_asc_node": 202.8261,
        "meta_arg_of_pericenter": 111.1395,
        "meta_mean_anomaly": 202.8482,
        "meta_ephemeris_type": 0,
        "meta_classification_type": "U",
        "meta_norad_cat_id": 66635,
        "meta_element_set_no": 999,
        "meta_rev_at_epoch": 372,
        "meta_bstar": -0.023267,
        "meta_mean_motion_dot": -0.01975484,
        "meta_mean_motion_ddot": 0,
        "tle_line1": "1 66635U 25271U   25343.50002315 -.01975484  00000+0 -23267-1 0  9996",
        "tle_line2": "2 66635  53.1590 202.8261 0000857 111.1395 202.8482 15.64058148  3723"
      },
      "geometry": {
        "type": "Point",
        "coordinates": [
          -136.29711087007632,
          26.4326698941014
        ]
      }
    },
    {
      "type": "Feature",
      "properties": {
        "norad_id": 66636,
        "name": "STARLINK-35968",
        "group": "last-30-days",
        "lat": 27.851138323980944,
        "lon": -134.8464082815074,
        "alt_km": 375.15440479101017,
        "timestamp": "2025-12-09T16:56:35.360144+00:00",
        "meta_object_name": "STARLINK-35968",
        "meta_object_id": "2025-271V",
        "meta_epoch": "2025-12-09T12:00:02.000160",
        "meta_mean_motion": 15.64060931,
        "meta_eccentricity": 8.73e-05,
        "meta_inclination": 53.1591,
        "meta_ra_of_asc_node": 202.8219,
        "meta_arg_of_pericenter": 112.059,
        "meta_mean_anomaly": 203.8464,
        "meta_ephemeris_type": 0,
        "meta_classification_type": "U",
        "meta_norad_cat_id": 66636,
        "meta_element_set_no": 999,
        "meta_rev_at_epoch": 372,
        "meta_bstar": -0.023346,
        "meta_mean_motion_dot": -0.01981562,
        "meta_mean_motion_ddot": 0,
        "tle_line1": "1 66636U 25271V   25343.50002315 -.01981562  00000+0 -23346-1 0  9999",
        "tle_line2": "2 66636  53.1591 202.8219 0000873 112.0590 203.8464 15.64060931  3727"
      },
      "geometry": {
        "type": "Point",
        "coordinates": [
          -134.8464082815074,
          27.851138323980944
        ]
      }
    },
    {
      "type": "Feature",
      "properties": {
        "norad_id": 66637,
        "name": "STARLINK-35953",
        "group": "last-30-days",
        "lat": 29.253646495089356,
        "lon": -133.35698717799636,
        "alt_km": 374.85560896581865,
        "timestamp": "2025-12-09T16:56:35.360156+00:00",
        "meta_object_name": "STARLINK-35953",
        "meta_object_id": "2025-271W",
        "meta_epoch": "2025-12-09T12:00:02.000160",
        "meta_mean_motion": 15.64056086,
        "meta_eccentricity": 7.4e-05,
        "meta_inclination": 53.159,
        "meta_ra_of_asc_node": 202.8182,
        "meta_arg_of_pericenter": 102.8326,
        "meta_mean_anomaly": 214.9915,
        "meta_ephemeris_type": 0,
        "meta_classification_type": "U",
        "meta_norad_cat_id": 66637,
        "meta_element_set_no": 999,
        "meta_rev_at_epoch": 372,
        "meta_bstar": -0.023253,
        "meta_mean_motion_dot": -0.01974218,
        "meta_mean_motion_ddot": 0,
        "tle_line1": "1 66637U 25271W   25343.50002315 -.01974218  00000+0 -23253-1 0  9997",
        "tle_line2": "2 66637  53.1590 202.8182 0000740 102.8326 214.9915 15.64056086  3723"
      },
      "geometry": {
        "type": "Point",
        "coordinates": [
          -133.35698717799636,
          29.253646495089356
        ]
      }
    },
    {
      "type": "Feature",
      "properties": {
        "norad_id": 66638,
        "name": "STARLINK-35972",
        "group": "last-30-days",
        "lat": 30.63652211577874,
        "lon": -131.82922312456284,
        "alt_km": 374.65514053543393,
        "timestamp": "2025-12-09T16:56:35.360168+00:00",
        "meta_object_name": "STARLINK-35972",
        "meta_object_id": "2025-271X",
        "meta_epoch": "2025-12-09T12:00:02.000160",
        "meta_mean_motion": 15.64055175,
        "meta_eccentricity": 8.69e-05,
        "meta_inclination": 53.159,
        "meta_ra_of_asc_node": 202.8146,
        "meta_arg_of_pericenter": 110.7186,
        "meta_mean_anomaly": 209.0216,
        "meta_ephemeris_type": 0,
        "meta_classification_type": "U",
        "meta_norad_cat_id": 66638,
        "meta_element_set_no": 999,
        "meta_rev_at_epoch": 372,
        "meta_bstar": -0.02323,
        "meta_mean_motion_dot": -0.01972537,
        "meta_mean_motion_ddot": 0,
        "tle_line1": "1 66638U 25271X   25343.50002315 -.01972537  00000+0 -23230-1 0  9995",
        "tle_line2": "2 66638  53.1590 202.8146 0000869 110.7186 209.0216 15.64055175  3725"
      },
      "geometry": {
        "type": "Point",
        "coordinates": [
          -131.82922312456284,
          30.63652211577874
        ]
      }
    }
  ]
}